      2.10          N: GNSS NAV DATA                        RINEX VERSION / TYPE
fic2rin                                 04/17/2020 00:17:33 PGM / RUN BY / DATE
                                                            END OF HEADER
26 20  4 16 16  0  0.0 1.887036487460e-04 7.389644451905e-12 0.000000000000e+00
    7.600000000000e+01 1.031250000000e+01 5.000208278745e-09 2.119106939390e+00
    6.277114152908e-07 4.741450888105e-03 7.685273885727e-06 5.153600524902e+03
    4.032000000000e+05-8.754432201385e-08 1.690031871537e+00 1.154839992523e-07
    9.469569054018e-01 2.266250000000e+02 2.236181378159e-01-8.213199255573e-09
   -3.507288949806e-10 1.000000000000e+00 2.101000000000e+03 0.000000000000e+00
    2.400000000000e+00 0.000000000000e+00 7.450580596924e-09 7.600000000000e+01
    3.960000000000e+05 4.000000000000e+00
20 20  4 16 16  0  0.0 5.278051830828e-04 0.000000000000e+00 0.000000000000e+00
    4.400000000000e+01-7.325000000000e+01 5.008780064366e-09-2.383260535910e+00
   -3.628432750702e-06 5.053774802946e-03 6.634742021561e-06 5.153641183853e+03
    4.032000000000e+05-8.568167686462e-08-1.550656724197e+00 5.029141902924e-08
    9.332647236389e-01 2.376250000000e+02 2.645430986053e+00-8.324632468642e-09
    2.500104139373e-12 1.000000000000e+00 2.101000000000e+03 0.000000000000e+00
    2.400000000000e+00 0.000000000000e+00-8.847564458847e-09 4.400000000000e+01
    3.960000000000e+05 4.000000000000e+00
18 20  4 16 16  0  0.0 1.585059799254e-04 1.341504685115e-11 0.000000000000e+00
    1.960000000000e+02-7.906250000000e+00 4.427327273095e-09-1.481961085788e+00
   -4.209578037262e-07 5.559647688642e-04 4.131346940994e-06 5.154348037720e+03
    4.032000000000e+05-5.587935447693e-08-2.441201192663e+00 5.587935447693e-09
    9.632776334999e-01 3.017812500000e+02 2.931004029294e+00-8.157839806773e-09
    7.607459738377e-11 1.000000000000e+00 2.101000000000e+03 0.000000000000e+00
    2.400000000000e+00 0.000000000000e+00-4.656612873077e-09 4.520000000000e+02
    3.960000000000e+05 4.000000000000e+00
28 20  4 16 16  0  0.0 7.248865440488e-04-3.069544618484e-12 0.000000000000e+00
    1.770000000000e+02 1.059375000000e+01 4.295178911442e-09 1.033300056684e+00
    2.831220626831e-07 1.847600541078e-02 8.681789040565e-06 5.153667240143e+03
    4.032000000000e+05-2.384185791016e-07 1.815682935259e+00-3.743916749954e-07
    9.777818094057e-01 2.262187500000e+02-1.409542230166e+00-8.100337411567e-09
   -3.764442518427e-10 1.000000000000e+00 2.101000000000e+03 0.000000000000e+00
    4.850000000000e+00 0.000000000000e+00-1.117587089539e-08 1.770000000000e+02
    3.960000000000e+05 4.000000000000e+00
 4 20  4 16 16  0  0.0-7.699476554990e-05-5.115907697473e-12 0.000000000000e+00
    1.800000000000e+02 4.562500000000e+00 4.480543775490e-09-6.931624644046e-01
    3.278255462646e-07 6.874264217913e-04 9.760260581970e-06 5.153696975708e+03
    4.032000000000e+05 2.421438694000e-08-3.392068925743e-01 4.284083843231e-08
    9.602704839658e-01 1.890312500000e+02-2.629372351432e+00-7.905329288696e-09
    3.778728827795e-10 1.000000000000e+00 2.101000000000e+03 0.000000000000e+00
    2.400000000000e+00 0.000000000000e+00-4.190951585770e-09 4.360000000000e+02
    3.960600000000e+05 4.000000000000e+00
 2 20  4 16 18  0  0.0-4.405430518091e-04-6.480149750132e-12 0.000000000000e+00
    2.300000000000e+01 1.718750000000e+00 4.888060750208e-09-5.312601078131e-01
    1.844018697739e-07 1.975022640545e-02 4.235655069351e-06 5.153673543930e+03
    4.104000000000e+05-2.253800630569e-07-2.534528737638e+00 1.881271600723e-07
    9.587632306912e-01 3.026875000000e+02-1.636742135645e+00-8.773222582793e-09
    1.389343586023e-10 1.000000000000e+00 2.101000000000e+03 0.000000000000e+00
    2.400000000000e+00 0.000000000000e+00-1.769512891769e-08 2.300000000000e+01
    4.032000000000e+05 4.000000000000e+00
 1 20  4 16 18  0  0.0-3.592981956899e-04-1.011812855722e-11 0.000000000000e+00
    8.900000000000e+01-1.365625000000e+01 4.299107646518e-09-7.804009493463e-01
   -7.264316082001e-07 9.684697724879e-03 4.027038812637e-06 5.153626234055e+03
    4.104000000000e+05 9.499490261078e-08-2.459089378966e+00 1.490116119385e-07
    9.797169574409e-01 3.098125000000e+02 7.635523009267e-01-8.208913362763e-09
   -4.857345185067e-11 1.000000000000e+00 2.101000000000e+03 0.000000000000e+00
    2.400000000000e+00 0.000000000000e+00 5.587935447693e-09 8.900000000000e+01
    4.032000000000e+05 4.000000000000e+00
 3 20  4 16 18  0  0.0-1.476318575442e-04-1.102762325900e-11 0.000000000000e+00
    5.200000000000e+01-8.078125000000e+01 4.249105563731e-09-1.838846445118e+00
   -4.151836037636e-06 2.721361233853e-03 7.921829819679e-06 5.153577156067e+03
    4.104000000000e+05-1.303851604462e-08-1.418116748518e+00-1.061707735062e-07
    9.650240592513e-01 2.298437500000e+02 6.934649549017e-01-7.882471193708e-09
   -1.217907873609e-10 1.000000000000e+00 2.101000000000e+03 0.000000000000e+00
    2.400000000000e+00 0.000000000000e+00 1.862645149231e-09 5.200000000000e+01
    4.032000000000e+05 4.000000000000e+00
10 20  4 16 18  0  0.0-3.122761845589e-04-1.205080479849e-11 0.000000000000e+00
    3.400000000000e+01-7.481250000000e+01 4.225175995540e-09-2.896163001157e+00
   -3.892928361893e-06 5.547521170229e-03 7.519498467445e-06 5.153668745041e+03
    4.104000000000e+05-2.235174179077e-08-1.421179592806e+00-2.980232238770e-08
    9.649801380618e-01 2.379062500000e+02-2.633525600729e+00-7.869613515277e-09
   -3.607293115380e-11 1.000000000000e+00 2.101000000000e+03 0.000000000000e+00
    2.400000000000e+00 0.000000000000e+00 1.862645149231e-09 3.400000000000e+01
    4.032000000000e+05 4.000000000000e+00
 9 20  4 16 18  0  0.0-1.990711316466e-04-7.730704965070e-12 0.000000000000e+00
    3.300000000000e+01 1.468750000000e+00 4.545903640848e-09 1.705810863515e+00
    1.341104507446e-07 1.583055709489e-03 9.866431355476e-06 5.153751525879e+03
    4.104000000000e+05 5.774199962616e-08-3.868381637394e-01 2.793967723846e-08
    9.529563499999e-01 1.845312500000e+02 1.811376215616e+00-7.949974005471e-09
    3.707297280955e-10 1.000000000000e+00 2.101000000000e+03 0.000000000000e+00
    2.400000000000e+00 0.000000000000e+00 1.396983861923e-09 3.300000000000e+01
    4.032000000000e+05 4.000000000000e+00
 6 20  4 16 18  0  0.0-2.539302222431e-04-7.617018127348e-12 0.000000000000e+00
    2.300000000000e+01-1.146875000000e+01 4.264106188567e-09-6.658492162525e-01
   -5.643814802170e-07 1.909898244776e-03 3.855675458908e-06 5.153785236359e+03
    4.104000000000e+05-8.009374141693e-08-2.467333889332e+00 4.284083843231e-08
    9.792936781868e-01 3.169062500000e+02-1.056333239559e+00-8.142124866468e-09
    3.678724662220e-11 1.000000000000e+00 2.101000000000e+03 0.000000000000e+00
    2.400000000000e+00 0.000000000000e+00 4.656612873077e-09 2.300000000000e+01
    4.032000000000e+05 4.000000000000e+00
 8 20  4 16 18  0  0.0-3.086496144533e-05-1.364242052659e-12 0.000000000000e+00
    3.400000000000e+01 5.103125000000e+01 4.311965324949e-09 1.511126098570e+00
    2.950429916382e-06 5.341561743990e-03 7.320195436478e-06 5.153655969620e+03
    4.104000000000e+05 7.078051567078e-08 2.755115696028e+00 8.381903171539e-08
    9.699993953626e-01 2.402500000000e+02-1.043587811564e-01-7.988189883030e-09
   -9.714690370133e-11 1.000000000000e+00 2.101000000000e+03 0.000000000000e+00
    2.400000000000e+00 0.000000000000e+00 5.122274160385e-09 3.400000000000e+01
    4.032000000000e+05 4.000000000000e+00
 5 20  4 16 18  0  0.0-1.096958294511e-05-6.821210263297e-13 0.000000000000e+00
    9.100000000000e+01-9.246875000000e+01 4.619835291826e-09 2.138873550543e+00
   -4.809349775314e-06 5.797101184726e-03 7.195398211479e-06 5.153644311905e+03
    4.104000000000e+05-4.284083843231e-08-1.449456981507e+00-8.568167686462e-08
    9.519190298999e-01 2.388437500000e+02 7.874092324923e-01-8.170340327470e-09
   -1.114332130692e-10 1.000000000000e+00 2.101000000000e+03 0.000000000000e+00
    2.400000000000e+00 0.000000000000e+00-1.117587089539e-08 9.100000000000e+01
    4.032000000000e+05 4.000000000000e+00
11 20  4 16 18  0  0.0-3.033862449229e-04 1.080024958355e-11 0.000000000000e+00
    1.900000000000e+01 3.356250000000e+01 5.817742332320e-09-1.283218866348e+00
    1.914799213409e-06 1.590917038266e-02 4.680827260017e-06 5.153714555740e+03
    4.104000000000e+05-3.110617399216e-07-2.930822372904e+00 3.725290298462e-08
    9.126856297285e-01 2.643125000000e+02 1.974569546210e+00-8.997874797602e-09
    1.303625729816e-10 1.000000000000e+00 2.101000000000e+03 0.000000000000e+00
    2.400000000000e+00 0.000000000000e+00-1.257285475731e-08 1.900000000000e+01
    4.032000000000e+05 4.000000000000e+00
 7 20  4 16 18  0  0.0-2.601193264127e-04-8.640199666843e-12 0.000000000000e+00
    8.300000000000e+01 2.890625000000e+01 4.945563145413e-09-1.535185512627e+00
    1.454725861549e-06 1.361031888518e-02 5.587935447693e-06 5.153669141769e+03
    4.104000000000e+05 2.421438694000e-07 6.870760888255e-01-7.450580596924e-08
    9.535983486732e-01 2.614375000000e+02-2.406426335236e+00-8.106409093049e-09
    1.946509651369e-10 1.000000000000e+00 2.101000000000e+03 0.000000000000e+00
    2.400000000000e+00 0.000000000000e+00-1.117587089539e-08 8.300000000000e+01
    4.032000000000e+05 4.000000000000e+00
27 20  4 16 18  0  0.0-2.686446532607e-04-1.045918907039e-11 0.000000000000e+00
    8.000000000000e+00 4.884375000000e+01 4.115171413407e-09 1.347372937022e+00
    2.788379788399e-06 8.204500540160e-03 8.050352334976e-06 5.153666923523e+03
    4.104000000000e+05-4.284083843231e-08 2.769069990286e+00 1.695007085800e-07
    9.784174955874e-01 2.345312500000e+02 5.400026598612e-01-7.968189049915e-09
   -8.893227581482e-11 1.000000000000e+00 2.101000000000e+03 0.000000000000e+00
    2.400000000000e+00 0.000000000000e+00 1.396983861923e-09 8.000000000000e+00
    4.032000000000e+05 4.000000000000e+00
